ORBCOMM FM103 [+]       
1 40091U 14040F   24048.96927700  .00001534  00000+0  38052-3 0  9994
2 40091  47.0055 145.9263 0002652 228.5175 131.5482 14.56310575510391
ORBCOMM FM114 [+]       
1 41179U 15081A   24049.27800101  .00001570  00000+0  38845-3 0  9998
2 41179  47.0037  53.7832 0002622 282.8627  77.1964 14.56317165433799
ORBCOMM FM119 [-]       
1 41180U 15081B   24049.04100129  .00001424  00000+0  35578-3 0  9996
2 41180  47.0021 324.0904 0001737 331.8510  28.2280 14.56302921434962
ORBCOMM FM105 [-]       
1 41181U 15081C   24048.94628678  .00000596  00000+0  21741-3 0  9995
2 41181  47.0011 283.9436 0002252 301.2097  58.8562 14.44236881430583
ORBCOMM FM110 [+]       
1 41182U 15081D   24049.32366669  .00001810  00000+0  44205-3 0  9998
2 41182  47.0025  52.9822 0000649 106.0860 254.0096 14.56320408433801
ORBCOMM FM118 [+]       
1 41183U 15081E   24049.36955882  .00001864  00000+0  45393-3 0  9992
2 41183  47.0040  53.0552 0000770 103.5011 256.5960 14.56320313433819
ORBCOMM FM112 [+]       
1 41184U 15081F   24049.15618598  .00002089  00000+0  50425-3 0  9992
2 41184  46.9993 322.7846 0001677 319.1550  40.9209 14.56326507434977
ORBCOMM FM113 [+]       
1 41185U 15081G   24049.13320130  .00001969  00000+0  47764-3 0  9991
2 41185  47.0014 323.1441 0001247 332.5504  27.5315 14.56306472434979
