<?xml version="1.0" encoding="UTF-8"?>
<ndm xmlns:xsi="http://www.w3.org/2001/XMLSchema-instance" xsi:noNamespaceSchemaLocation="https://sanaregistry.org/r/ndmxml_unqualified/ndmxml-2.0.0-master-2.0.xsd">
<omm id="CCSDS_OMM_VERS" version="2.0">
<header><CREATION_DATE/><ORIGINATOR/></header><body><segment><metadata><OBJECT_NAME>ORBCOMM FM103 [+]</OBJECT_NAME><OBJECT_ID>2014-040F</OBJECT_ID><CENTER_NAME>EARTH</CENTER_NAME><REF_FRAME>TEME</REF_FRAME><TIME_SYSTEM>UTC</TIME_SYSTEM><MEAN_ELEMENT_THEORY>SGP4</MEAN_ELEMENT_THEORY></metadata><data><meanElements><EPOCH>2024-02-17T23:15:45.532800</EPOCH><MEAN_MOTION>14.56310575</MEAN_MOTION><ECCENTRICITY>.0002652</ECCENTRICITY><INCLINATION>47.0055</INCLINATION><RA_OF_ASC_NODE>145.9263</RA_OF_ASC_NODE><ARG_OF_PERICENTER>228.5175</ARG_OF_PERICENTER><MEAN_ANOMALY>131.5482</MEAN_ANOMALY></meanElements><tleParameters><EPHEMERIS_TYPE>0</EPHEMERIS_TYPE><CLASSIFICATION_TYPE>U</CLASSIFICATION_TYPE><NORAD_CAT_ID>40091</NORAD_CAT_ID><ELEMENT_SET_NO>999</ELEMENT_SET_NO><REV_AT_EPOCH>51039</REV_AT_EPOCH><BSTAR>.38052E-3</BSTAR><MEAN_MOTION_DOT>.1534E-4</MEAN_MOTION_DOT><MEAN_MOTION_DDOT>0</MEAN_MOTION_DDOT></tleParameters></data></segment></body></omm>
<omm id="CCSDS_OMM_VERS" version="2.0">
<header><CREATION_DATE/><ORIGINATOR/></header><body><segment><metadata><OBJECT_NAME>ORBCOMM FM114 [+]</OBJECT_NAME><OBJECT_ID>2015-081A</OBJECT_ID><CENTER_NAME>EARTH</CENTER_NAME><REF_FRAME>TEME</REF_FRAME><TIME_SYSTEM>UTC</TIME_SYSTEM><MEAN_ELEMENT_THEORY>SGP4</MEAN_ELEMENT_THEORY></metadata><data><meanElements><EPOCH>2024-02-18T06:40:19.287264</EPOCH><MEAN_MOTION>14.56317165</MEAN_MOTION><ECCENTRICITY>.0002622</ECCENTRICITY><INCLINATION>47.0037</INCLINATION><RA_OF_ASC_NODE>53.7832</RA_OF_ASC_NODE><ARG_OF_PERICENTER>282.8627</ARG_OF_PERICENTER><MEAN_ANOMALY>77.1964</MEAN_ANOMALY></meanElements><tleParameters><EPHEMERIS_TYPE>0</EPHEMERIS_TYPE><CLASSIFICATION_TYPE>U</CLASSIFICATION_TYPE><NORAD_CAT_ID>41179</NORAD_CAT_ID><ELEMENT_SET_NO>999</ELEMENT_SET_NO><REV_AT_EPOCH>43379</REV_AT_EPOCH><BSTAR>.38845E-3</BSTAR><MEAN_MOTION_DOT>.157E-4</MEAN_MOTION_DOT><MEAN_MOTION_DDOT>0</MEAN_MOTION_DDOT></tleParameters></data></segment></body></omm>
<omm id="CCSDS_OMM_VERS" version="2.0">
<header><CREATION_DATE/><ORIGINATOR/></header><body><segment><metadata><OBJECT_NAME>ORBCOMM FM119 [-]</OBJECT_NAME><OBJECT_ID>2015-081B</OBJECT_ID><CENTER_NAME>EARTH</CENTER_NAME><REF_FRAME>TEME</REF_FRAME><TIME_SYSTEM>UTC</TIME_SYSTEM><MEAN_ELEMENT_THEORY>SGP4</MEAN_ELEMENT_THEORY></metadata><data><meanElements><EPOCH>2024-02-18T00:59:02.511456</EPOCH><MEAN_MOTION>14.56302921</MEAN_MOTION><ECCENTRICITY>.0001737</ECCENTRICITY><INCLINATION>47.0021</INCLINATION><RA_OF_ASC_NODE>324.0904</RA_OF_ASC_NODE><ARG_OF_PERICENTER>331.8510</ARG_OF_PERICENTER><MEAN_ANOMALY>28.2280</MEAN_ANOMALY></meanElements><tleParameters><EPHEMERIS_TYPE>0</EPHEMERIS_TYPE><CLASSIFICATION_TYPE>U</CLASSIFICATION_TYPE><NORAD_CAT_ID>41180</NORAD_CAT_ID><ELEMENT_SET_NO>999</ELEMENT_SET_NO><REV_AT_EPOCH>43496</REV_AT_EPOCH><BSTAR>.35578E-3</BSTAR><MEAN_MOTION_DOT>.1424E-4</MEAN_MOTION_DOT><MEAN_MOTION_DDOT>0</MEAN_MOTION_DDOT></tleParameters></data></segment></body></omm>
<omm id="CCSDS_OMM_VERS" version="2.0">
<header><CREATION_DATE/><ORIGINATOR/></header><body><segment><metadata><OBJECT_NAME>ORBCOMM FM105 [-]</OBJECT_NAME><OBJECT_ID>2015-081C</OBJECT_ID><CENTER_NAME>EARTH</CENTER_NAME><REF_FRAME>TEME</REF_FRAME><TIME_SYSTEM>UTC</TIME_SYSTEM><MEAN_ELEMENT_THEORY>SGP4</MEAN_ELEMENT_THEORY></metadata><data><meanElements><EPOCH>2024-02-17T22:42:39.177792</EPOCH><MEAN_MOTION>14.44236881</MEAN_MOTION><ECCENTRICITY>.0002252</ECCENTRICITY><INCLINATION>47.0011</INCLINATION><RA_OF_ASC_NODE>283.9436</RA_OF_ASC_NODE><ARG_OF_PERICENTER>301.2097</ARG_OF_PERICENTER><MEAN_ANOMALY>58.8562</MEAN_ANOMALY></meanElements><tleParameters><EPHEMERIS_TYPE>0</EPHEMERIS_TYPE><CLASSIFICATION_TYPE>U</CLASSIFICATION_TYPE><NORAD_CAT_ID>41181</NORAD_CAT_ID><ELEMENT_SET_NO>999</ELEMENT_SET_NO><REV_AT_EPOCH>43058</REV_AT_EPOCH><BSTAR>.21741E-3</BSTAR><MEAN_MOTION_DOT>.596E-5</MEAN_MOTION_DOT><MEAN_MOTION_DDOT>0</MEAN_MOTION_DDOT></tleParameters></data></segment></body></omm>
<omm id="CCSDS_OMM_VERS" version="2.0">
<header><CREATION_DATE/><ORIGINATOR/></header><body><segment><metadata><OBJECT_NAME>ORBCOMM FM110 [+]</OBJECT_NAME><OBJECT_ID>2015-081D</OBJECT_ID><CENTER_NAME>EARTH</CENTER_NAME><REF_FRAME>TEME</REF_FRAME><TIME_SYSTEM>UTC</TIME_SYSTEM><MEAN_ELEMENT_THEORY>SGP4</MEAN_ELEMENT_THEORY></metadata><data><meanElements><EPOCH>2024-02-18T07:46:04.802016</EPOCH><MEAN_MOTION>14.56320408</MEAN_MOTION><ECCENTRICITY>.0000649</ECCENTRICITY><INCLINATION>47.0025</INCLINATION><RA_OF_ASC_NODE>52.9822</RA_OF_ASC_NODE><ARG_OF_PERICENTER>106.0860</ARG_OF_PERICENTER><MEAN_ANOMALY>254.0096</MEAN_ANOMALY></meanElements><tleParameters><EPHEMERIS_TYPE>0</EPHEMERIS_TYPE><CLASSIFICATION_TYPE>U</CLASSIFICATION_TYPE><NORAD_CAT_ID>41182</NORAD_CAT_ID><ELEMENT_SET_NO>999</ELEMENT_SET_NO><REV_AT_EPOCH>43380</REV_AT_EPOCH><BSTAR>.44205E-3</BSTAR><MEAN_MOTION_DOT>.181E-4</MEAN_MOTION_DOT><MEAN_MOTION_DDOT>0</MEAN_MOTION_DDOT></tleParameters></data></segment></body></omm>
<omm id="CCSDS_OMM_VERS" version="2.0">
<header><CREATION_DATE/><ORIGINATOR/></header><body><segment><metadata><OBJECT_NAME>ORBCOMM FM118 [+]</OBJECT_NAME><OBJECT_ID>2015-081E</OBJECT_ID><CENTER_NAME>EARTH</CENTER_NAME><REF_FRAME>TEME</REF_FRAME><TIME_SYSTEM>UTC</TIME_SYSTEM><MEAN_ELEMENT_THEORY>SGP4</MEAN_ELEMENT_THEORY></metadata><data><meanElements><EPOCH>2024-02-18T08:52:09.882048</EPOCH><MEAN_MOTION>14.56320313</MEAN_MOTION><ECCENTRICITY>.000077</ECCENTRICITY><INCLINATION>47.0040</INCLINATION><RA_OF_ASC_NODE>53.0552</RA_OF_ASC_NODE><ARG_OF_PERICENTER>103.5011</ARG_OF_PERICENTER><MEAN_ANOMALY>256.5960</MEAN_ANOMALY></meanElements><tleParameters><EPHEMERIS_TYPE>0</EPHEMERIS_TYPE><CLASSIFICATION_TYPE>U</CLASSIFICATION_TYPE><NORAD_CAT_ID>41183</NORAD_CAT_ID><ELEMENT_SET_NO>999</ELEMENT_SET_NO><REV_AT_EPOCH>43381</REV_AT_EPOCH><BSTAR>.45393E-3</BSTAR><MEAN_MOTION_DOT>.1864E-4</MEAN_MOTION_DOT><MEAN_MOTION_DDOT>0</MEAN_MOTION_DDOT></tleParameters></data></segment></body></omm>
<omm id="CCSDS_OMM_VERS" version="2.0">
<header><CREATION_DATE/><ORIGINATOR/></header><body><segment><metadata><OBJECT_NAME>ORBCOMM FM112 [+]</OBJECT_NAME><OBJECT_ID>2015-081F</OBJECT_ID><CENTER_NAME>EARTH</CENTER_NAME><REF_FRAME>TEME</REF_FRAME><TIME_SYSTEM>UTC</TIME_SYSTEM><MEAN_ELEMENT_THEORY>SGP4</MEAN_ELEMENT_THEORY></metadata><data><meanElements><EPOCH>2024-02-18T03:44:54.468672</EPOCH><MEAN_MOTION>14.56326507</MEAN_MOTION><ECCENTRICITY>.0001677</ECCENTRICITY><INCLINATION>46.9993</INCLINATION><RA_OF_ASC_NODE>322.7846</RA_OF_ASC_NODE><ARG_OF_PERICENTER>319.1550</ARG_OF_PERICENTER><MEAN_ANOMALY>40.9209</MEAN_ANOMALY></meanElements><tleParameters><EPHEMERIS_TYPE>0</EPHEMERIS_TYPE><CLASSIFICATION_TYPE>U</CLASSIFICATION_TYPE><NORAD_CAT_ID>41184</NORAD_CAT_ID><ELEMENT_SET_NO>999</ELEMENT_SET_NO><REV_AT_EPOCH>43497</REV_AT_EPOCH><BSTAR>.50425E-3</BSTAR><MEAN_MOTION_DOT>.2089E-4</MEAN_MOTION_DOT><MEAN_MOTION_DDOT>0</MEAN_MOTION_DDOT></tleParameters></data></segment></body></omm>
<omm id="CCSDS_OMM_VERS" version="2.0">
<header><CREATION_DATE/><ORIGINATOR/></header><body><segment><metadata><OBJECT_NAME>ORBCOMM FM113 [+]</OBJECT_NAME><OBJECT_ID>2015-081G</OBJECT_ID><CENTER_NAME>EARTH</CENTER_NAME><REF_FRAME>TEME</REF_FRAME><TIME_SYSTEM>UTC</TIME_SYSTEM><MEAN_ELEMENT_THEORY>SGP4</MEAN_ELEMENT_THEORY></metadata><data><meanElements><EPOCH>2024-02-18T03:11:48.592320</EPOCH><MEAN_MOTION>14.56306472</MEAN_MOTION><ECCENTRICITY>.0001247</ECCENTRICITY><INCLINATION>47.0014</INCLINATION><RA_OF_ASC_NODE>323.1441</RA_OF_ASC_NODE><ARG_OF_PERICENTER>332.5504</ARG_OF_PERICENTER><MEAN_ANOMALY>27.5315</MEAN_ANOMALY></meanElements><tleParameters><EPHEMERIS_TYPE>0</EPHEMERIS_TYPE><CLASSIFICATION_TYPE>U</CLASSIFICATION_TYPE><NORAD_CAT_ID>41185</NORAD_CAT_ID><ELEMENT_SET_NO>999</ELEMENT_SET_NO><REV_AT_EPOCH>43497</REV_AT_EPOCH><BSTAR>.47764E-3</BSTAR><MEAN_MOTION_DOT>.1969E-4</MEAN_MOTION_DOT><MEAN_MOTION_DDOT>0</MEAN_MOTION_DDOT></tleParameters></data></segment></body></omm>

</ndm>
